{"type": "FeatureCollection", "features": [ {"type": "Feature", "properties": {"norad_id": 40792, "name": "COSMOS 2251 DEB", "group": "cosmos-2251-debris", "lat": -51.644223897132754, "lon": -112.30667232377618, "alt_km": 673.9394037700667, "timestamp": "2025-12-13T05:42:57.970691+00:00", "meta": {"OBJECT_NAME": "COSMOS 2251 DEB", "OBJECT_ID": "1993-036BVV", "EPOCH": "2025-12-08T11:49:11.388288", "MEAN_MOTION": 14.67495133, "ECCENTRICITY": 0.00157828, "INCLINATION": 74.0463, "RA_OF_ASC_NODE": 55.6567, "ARG_OF_PERICENTER": 162.447, "MEAN_ANOMALY": 210.2984, "EPHEMERIS_TYPE": 0, "CLASSIFICATION_TYPE": "U", "NORAD_CAT_ID": 40792, "ELEMENT_SET_NO": 999, "REV_AT_EPOCH": 63122, "BSTAR": 0.0015277322, "MEAN_MOTION_DOT": 8.654e-05, "MEAN_MOTION_DDOT": 0}, "tle": {"line1": "1 40792U 93036BVV 25342.49249292  .00008654  00000+0  15277-2 0  9996", "line2": "2 40792  74.0463  55.6567 0015782 162.4470 210.2984 14.67495133631222"}}, "geometry": {"type": "Point", "coordinates": [-112.30667232377618, -51.644223897132754]}}, {"type": "Feature", "properties": {"norad_id": 40793, "name": "COSMOS 2251 DEB", "group": "cosmos-2251-debris", "lat": 72.17033069968807, "lon": -132.45709865406948, "alt_km": 946.4448549602075, "timestamp": "2025-12-13T05:42:57.970702+00:00", "meta": {"OBJECT_NAME": "COSMOS 2251 DEB", "OBJECT_ID": "1993-036BVW", "EPOCH": "2025-11-17T22:59:08.433600", "MEAN_MOTION": 14.0559149, "ECCENTRICITY": 0.02150611, "INCLINATION": 73.9793, "RA_OF_ASC_NODE": 208.5839, "ARG_OF_PERICENTER": 10.058, "MEAN_ANOMALY": 350.4754, "EPHEMERIS_TYPE": 0, "CLASSIFICATION_TYPE": "U", "NORAD_CAT_ID": 40793, "ELEMENT_SET_NO": 999, "REV_AT_EPOCH": 67897, "BSTAR": 0.0015211732, "MEAN_MOTION_DOT": 3.024e-05, "MEAN_MOTION_DDOT": 0}, "tle": {"line1": "1 40793U 93036BVW 25321.95773650  .00003024  00000+0  15212-2 0  9990", "line2": "2 40793  73.9793 208.5839 0215061  10.0580 350.4754 14.05591490678970"}}, "geometry": {"type": "Point", "coordinates": [-132.45709865406948, 72.17033069968807]}}, {"type": "Feature", "properties": {"norad_id": 40794, "name": "COSMOS 2251 DEB", "group": "cosmos-2251-debris", "lat": -51.10167605790154, "lon": 102.38569376817935, "alt_km": 594.3995108697382, "timestamp": "2025-12-13T05:42:57.970712+00:00", "meta": {"OBJECT_NAME": "COSMOS 2251 DEB", "OBJECT_ID": "1993-036BVX", "EPOCH": "2025-11-30T04:39:36.279360", "MEAN_MOTION": 14.91253423, "ECCENTRICITY": 0.00103638, "INCLINATION": 73.9758, "RA_OF_ASC_NODE": 149.5129, "ARG_OF_PERICENTER": 264.0956, "MEAN_ANOMALY": 215.1976, "EPHEMERIS_TYPE": 0, "CLASSIFICATION_TYPE": "U", "NORAD_CAT_ID": 40794, "ELEMENT_SET_NO": 999, "REV_AT_EPOCH": 61737, "BSTAR": 0.0047311798, "MEAN_MOTION_DOT": 0.00047418, "MEAN_MOTION_DDOT": 0}, "tle": {"line1": "1 40794U 93036BVX 25334.19416990  .00047418  00000+0  47312-2 0  9993", "line2": "2 40794  73.9758 149.5129 0010363 264.0956 215.1976 14.91253423617370"}}, "geometry": {"type": "Point", "coordinates": [102.38569376817935, -51.10167605790154]}}, {"type": "Feature", "properties": {"norad_id": 40796, "name": "COSMOS 2251 DEB", "group": "cosmos-2251-debris", "lat": -20.909310566413183, "lon": 134.91702643064937, "alt_km": 609.6020433012754, "timestamp": "2025-12-13T05:42:57.970722+00:00", "meta": {"OBJECT_NAME": "COSMOS 2251 DEB", "OBJECT_ID": "1993-036BVZ", "EPOCH": "2025-12-10T03:48:45.254304", "MEAN_MOTION": 14.81637417, "ECCENTRICITY": 0.00560692, "INCLINATION": 74.0121, "RA_OF_ASC_NODE": 147.2935, "ARG_OF_PERICENTER": 284.3581, "MEAN_ANOMALY": 195.1854, "EPHEMERIS_TYPE": 0, "CLASSIFICATION_TYPE": "U", "NORAD_CAT_ID": 40796, "ELEMENT_SET_NO": 999, "REV_AT_EPOCH": 76120, "BSTAR": 0.0012879696, "MEAN_MOTION_DOT": 0.0001039, "MEAN_MOTION_DDOT": 0}, "tle": {"line1": "1 40796U 93036BVZ 25344.15885711  .00010390  00000+0  12880-2 0  9994", "line2": "2 40796  74.0121 147.2935 0056069 284.3581 195.1854 14.81637417761202"}}, "geometry": {"type": "Point", "coordinates": [134.91702643064937, -20.909310566413183]}}, {"type": "Feature", "properties": {"norad_id": 40797, "name": "COSMOS 2251 DEB", "group": "cosmos-2251-debris", "lat": 73.44053954923102, "lon": -161.6736360395317, "alt_km": 523.1382794447709, "timestamp": "2025-12-13T05:42:57.970733+00:00", "meta": {"OBJECT_NAME": "COSMOS 2251 DEB", "OBJECT_ID": "1993-036BWA", "EPOCH": "2025-11-19T18:43:16.602528", "MEAN_MOTION": 15.10509474, "ECCENTRICITY": 0.00703947, "INCLINATION": 73.92, "RA_OF_ASC_NODE": 143.0892, "ARG_OF_PERICENTER": 60.6639, "MEAN_ANOMALY": 300.156, "EPHEMERIS_TYPE": 0, "CLASSIFICATION_TYPE": "U", "NORAD_CAT_ID": 40797, "ELEMENT_SET_NO": 999, "REV_AT_EPOCH": 64297, "BSTAR": 0.00072810385, "MEAN_MOTION_DOT": 0.00012707, "MEAN_MOTION_DDOT": 0}, "tle": {"line1": "1 40797U 93036BWA 25323.78005327  .00012707  00000+0  72810-3 0  9992", "line2": "2 40797  73.9200 143.0892 0070394  60.6639 300.1560 15.10509474642979"}}, "geometry": {"type": "Point", "coordinates": [-161.6736360395317, 73.44053954923102]}}, {"type": "Feature", "properties": {"norad_id": 40799, "name": "COSMOS 2251 DEB", "group": "cosmos-2251-debris", "lat": 71.85238533775637, "lon": 158.9623593862612, "alt_km": 586.6639567761649, "timestamp": "2025-12-13T05:42:57.970743+00:00", "meta": {"OBJECT_NAME": "COSMOS 2251 DEB", "OBJECT_ID": "1993-036BWC", "EPOCH": "2025-12-09T01:53:34.430208", "MEAN_MOTION": 14.96607637, "ECCENTRICITY": 0.01188532, "INCLINATION": 73.9255, "RA_OF_ASC_NODE": 105.8165, "ARG_OF_PERICENTER": 348.6174, "MEAN_ANOMALY": 11.2323, "EPHEMERIS_TYPE": 0, "CLASSIFICATION_TYPE": "U", "NORAD_CAT_ID": 40799, "ELEMENT_SET_NO": 999, "REV_AT_EPOCH": 49922, "BSTAR": 0.00041300806, "MEAN_MOTION_DOT": 5.391e-05, "MEAN_MOTION_DDOT": 0}, "tle": {"line1": "1 40799U 93036BWC 25343.07887072  .00005391  00000+0  41301-3 0  9995", "line2": "2 40799  73.9255 105.8165 0118853 348.6174  11.2323 14.96607637499224"}}, "geometry": {"type": "Point", "coordinates": [158.9623593862612, 71.85238533775637]}}, {"type": "Feature", "properties": {"norad_id": 40802, "name": "COSMOS 2251 DEB", "group": "cosmos-2251-debris", "lat": 73.82254408146831, "lon": -108.53514134505262, "alt_km": 670.4587139792375, "timestamp": "2025-12-13T05:42:57.970753+00:00", "meta": {"OBJECT_NAME": "COSMOS 2251 DEB", "OBJECT_ID": "1993-036BWF", "EPOCH": "2025-12-09T18:25:18.853248", "MEAN_MOTION": 14.77560234, "ECCENTRICITY": 0.00632236, "INCLINATION": 74.04, "RA_OF_ASC_NODE": 158.8434, "ARG_OF_PERICENTER": 258.1677, "MEAN_ANOMALY": 101.2403, "EPHEMERIS_TYPE": 0, "CLASSIFICATION_TYPE": "U", "NORAD_CAT_ID": 40802, "ELEMENT_SET_NO": 999, "REV_AT_EPOCH": 64365, "BSTAR": 0.0011312786, "MEAN_MOTION_DOT": 8.327e-05, "MEAN_MOTION_DDOT": 0}, "tle": {"line1": "1 40802U 93036BWF 25343.76757932  .00008327  00000+0  11313-2 0  9998", "line2": "2 40802  74.0400 158.8434 0063223 258.1677 101.2403 14.77560234643650"}}, "geometry": {"type": "Point", "coordinates": [-108.53514134505262, 73.82254408146831]}}, {"type": "Feature", "properties": {"norad_id": 40803, "name": "COSMOS 2251 DEB", "group": "cosmos-2251-debris", "lat": -63.5825903409503, "lon": -93.79107116858647, "alt_km": 701.9849108386188, "timestamp": "2025-12-13T05:42:57.970764+00:00", "meta": {"OBJECT_NAME": "COSMOS 2251 DEB", "OBJECT_ID": "1993-036BWG", "EPOCH": "2025-12-05T22:55:29.451072", "MEAN_MOTION": 14.51792027, "ECCENTRICITY": 0.00362816, "INCLINATION": 74.0122, "RA_OF_ASC_NODE": 64.6912, "ARG_OF_PERICENTER": 281.8159, "MEAN_ANOMALY": 77.8934, "EPHEMERIS_TYPE": 0, "CLASSIFICATION_TYPE": "U", "NORAD_CAT_ID": 40803, "ELEMENT_SET_NO": 999, "REV_AT_EPOCH": 58654, "BSTAR": 0.00062935795, "MEAN_MOTION_DOT": 2.525e-05, "MEAN_MOTION_DDOT": 0}, "tle": {"line1": "1 40803U 93036BWG 25339.95520198  .00002525  00000+0  62936-3 0  9999", "line2": "2 40803  74.0122  64.6912 0036281 281.8159  77.8934 14.51792027586549"}}, "geometry": {"type": "Point", "coordinates": [-93.79107116858647, -63.5825903409503]}}, {"type": "Feature", "properties": {"norad_id": 40808, "name": "COSMOS 2251 DEB", "group": "cosmos-2251-debris", "lat": -11.340684261897419, "lon": -32.20012536073747, "alt_km": 666.6476490872856, "timestamp": "2025-12-13T05:42:57.970774+00:00", "meta": {"OBJECT_NAME": "COSMOS 2251 DEB", "OBJECT_ID": "1993-036BWM", "EPOCH": "2025-12-12T05:07:03.218880", "MEAN_MOTION": 14.67464689, "ECCENTRICITY": 0.0009281, "INCLINATION": 74.0411, "RA_OF_ASC_NODE": 146.4875, "ARG_OF_PERICENTER": 183.2487, "MEAN_ANOMALY": 355.9796, "EPHEMERIS_TYPE": 0, "CLASSIFICATION_TYPE": "U", "NORAD_CAT_ID": 40808, "ELEMENT_SET_NO": 999, "REV_AT_EPOCH": 63611, "BSTAR": 0.0026055543, "MEAN_MOTION_DOT": 0.00014767, "MEAN_MOTION_DDOT": 0}, "tle": {"line1": "1 40808U 93036BWM 25346.21323170  .00014767  00000+0  26056-2 0  9995", "line2": "2 40808  74.0411 146.4875 0009281 183.2487 355.9796 14.67464689636113"}}, "geometry": {"type": "Point", "coordinates": [-32.20012536073747, -11.340684261897419]}}, {"type": "Feature", "properties": {"norad_id": 40810, "name": "COSMOS 2251 DEB", "group": "cosmos-2251-debris", "lat": 73.72522164295195, "lon": 175.1266488101219, "alt_km": 698.6357928857506, "timestamp": "2025-12-13T05:42:57.970784+00:00", "meta": {"OBJECT_NAME": "COSMOS 2251 DEB", "OBJECT_ID": "1993-036BWP", "EPOCH": "2025-12-11T13:47:10.605120", "MEAN_MOTION": 14.58706242, "ECCENTRICITY": 0.0018546, "INCLINATION": 74.0365, "RA_OF_ASC_NODE": 76.9551, "ARG_OF_PERICENTER": 228.6386, "MEAN_ANOMALY": 131.3185, "EPHEMERIS_TYPE": 0, "CLASSIFICATION_TYPE": "U", "NORAD_CAT_ID": 40810, "ELEMENT_SET_NO": 999, "REV_AT_EPOCH": 61666, "BSTAR": 0.0012743494, "MEAN_MOTION_DOT": 5.935e-05, "MEAN_MOTION_DDOT": 0}, "tle": {"line1": "1 40810U 93036BWP 25345.57442830  .00005935  00000+0  12743-2 0  9996", "line2": "2 40810  74.0365  76.9551 0018546 228.6386 131.3185 14.58706242616668"}}, "geometry": {"type": "Point", "coordinates": [175.1266488101219, 73.72522164295195]}}]}